[{"OBJECT_NAME":"STARLINK-2058","OBJECT_ID":"2021-012AZ","EPOCH":"2026-03-09T22:00:01.999584","MEAN_MOTION":15.81751151,"ECCENTRICITY":0.00080245,"INCLINATION":53.0405,"RA_OF_ASC_NODE":22.819,"ARG_OF_PERICENTER":62.933,"MEAN_ANOMALY":251.0227,"EPHEMERIS_TYPE":0,"CLASSIFICATION_TYPE":"U","NORAD_CAT_ID":47667,"ELEMENT_SET_NO":999,"REV_AT_EPOCH":586,"BSTAR":0.001226838,"MEAN_MOTION_DOT":0.00259649,"MEAN_MOTION_DDOT":0},{"OBJECT_NAME":"DONGPO 06","OBJECT_ID":"2022-098D","EPOCH":"2026-03-09T23:02:06.069408","MEAN_MOTION":15.80724607,"ECCENTRICITY":0.0004374,"INCLINATION":97.5346,"RA_OF_ASC_NODE":198.2666,"ARG_OF_PERICENTER":270.9335,"MEAN_ANOMALY":89.1431,"EPHEMERIS_TYPE":0,"CLASSIFICATION_TYPE":"U","NORAD_CAT_ID":53447,"ELEMENT_SET_NO":999,"REV_AT_EPOCH":19961,"BSTAR":0.0010695028,"MEAN_MOTION_DOT":0.00208925,"MEAN_MOTION_DDOT":0}]
